{
  "type": "FeatureCollection",
  "features": [
    {
      "type": "Feature",
      "properties": {
        "norad_id": 66767,
        "name": "TRANSPORTER-15DF",
        "group": "last-30-days",
        "lat": 43.138079308107486,
        "lon": -101.99548754859902,
        "alt_km": 506.354371297095,
        "timestamp": "2025-12-25T09:48:51.005208+00:00",
        "meta_object_name": "TRANSPORTER-15DF",
        "meta_object_id": "2025-276DF",
        "meta_epoch": "2025-12-25T04:28:15.449952",
        "meta_mean_motion": 15.18350841,
        "meta_eccentricity": 0.0002105,
        "meta_inclination": 97.4364,
        "meta_ra_of_asc_node": 70.7556,
        "meta_arg_of_pericenter": 87.5458,
        "meta_mean_anomaly": 272.6018,
        "meta_ephemeris_type": 0,
        "meta_classification_type": "U",
        "meta_norad_cat_id": 66767,
        "meta_element_set_no": 999,
        "meta_rev_at_epoch": 401,
        "meta_bstar": 0.00031918,
        "meta_mean_motion_dot": 6.49e-05,
        "meta_mean_motion_ddot": 0,
        "tle_line1": "1 66767U 25276DF  25359.18628993  .00006490  00000+0  31918-3 0  9997",
        "tle_line2": "2 66767  97.4364  70.7556 0002105  87.5458 272.6018 15.18350841  4019"
      },
      "geometry": {
        "type": "Point",
        "coordinates": [
          -101.99548754859902,
          43.138079308107486
        ]
      }
    },
    {
      "type": "Feature",
      "properties": {
        "norad_id": 66768,
        "name": "TRANSPORTER-15DG",
        "group": "last-30-days",
        "lat": 29.92508647156581,
        "lon": -104.71299830148227,
        "alt_km": 508.3445035152681,
        "timestamp": "2025-12-25T09:48:51.005218+00:00",
        "meta_object_name": "TRANSPORTER-15DG",
        "meta_object_id": "2025-276DG",
        "meta_epoch": "2025-12-25T04:24:46.724832",
        "meta_mean_motion": 15.18558831,
        "meta_eccentricity": 0.0002216,
        "meta_inclination": 97.4352,
        "meta_ra_of_asc_node": 70.7547,
        "meta_arg_of_pericenter": 75.5429,
        "meta_mean_anomaly": 284.6051,
        "meta_ephemeris_type": 0,
        "meta_classification_type": "U",
        "meta_norad_cat_id": 66768,
        "meta_element_set_no": 999,
        "meta_rev_at_epoch": 401,
        "meta_bstar": 0.00054284,
        "meta_mean_motion_dot": 0.00011157,
        "meta_mean_motion_ddot": 0,
        "tle_line1": "1 66768U 25276DG  25359.18387413  .00011157  00000+0  54284-3 0  9994",
        "tle_line2": "2 66768  97.4352  70.7547 0002216  75.5429 284.6051 15.18558831  4014"
      },
      "geometry": {
        "type": "Point",
        "coordinates": [
          -104.71299830148227,
          29.92508647156581
        ]
      }
    },
    {
      "type": "Feature",
      "properties": {
        "norad_id": 66769,
        "name": "TRANSPORTER-15DH",
        "group": "last-30-days",
        "lat": 35.82408308342873,
        "lon": -103.5928180315804,
        "alt_km": 506.7751605889189,
        "timestamp": "2025-12-25T09:48:51.005229+00:00",
        "meta_object_name": "TRANSPORTER-15DH",
        "meta_object_id": "2025-276DH",
        "meta_epoch": "2025-12-25T04:26:19.425984",
        "meta_mean_motion": 15.18430673,
        "meta_eccentricity": 0.0002737,
        "meta_inclination": 97.4413,
        "meta_ra_of_asc_node": 70.773,
        "meta_arg_of_pericenter": 103.102,
        "meta_mean_anomaly": 257.052,
        "meta_ephemeris_type": 0,
        "meta_classification_type": "U",
        "meta_norad_cat_id": 66769,
        "meta_element_set_no": 999,
        "meta_rev_at_epoch": 401,
        "meta_bstar": 0.00029958,
        "meta_mean_motion_dot": 6.101e-05,
        "meta_mean_motion_ddot": 0,
        "tle_line1": "1 66769U 25276DH  25359.18494706  .00006101  00000+0  29958-3 0  9992",
        "tle_line2": "2 66769  97.4413  70.7730 0002737 103.1020 257.0520 15.18430673  4018"
      },
      "geometry": {
        "type": "Point",
        "coordinates": [
          -103.5928180315804,
          35.82408308342873
        ]
      }
    },
    {
      "type": "Feature",
      "properties": {
        "norad_id": 66770,
        "name": "TRANSPORTER-15DJ",
        "group": "last-30-days",
        "lat": 34.21420647569215,
        "lon": -103.89428514298969,
        "alt_km": 506.4944403223071,
        "timestamp": "2025-12-25T09:48:51.005239+00:00",
        "meta_object_name": "TRANSPORTER-15DJ",
        "meta_object_id": "2025-276DJ",
        "meta_epoch": "2025-12-25T04:25:53.328000",
        "meta_mean_motion": 15.18402553,
        "meta_eccentricity": 0.0003354,
        "meta_inclination": 97.4444,
        "meta_ra_of_asc_node": 70.7841,
        "meta_arg_of_pericenter": 118.0381,
        "meta_mean_anomaly": 242.1193,
        "meta_ephemeris_type": 0,
        "meta_classification_type": "U",
        "meta_norad_cat_id": 66770,
        "meta_element_set_no": 999,
        "meta_rev_at_epoch": 401,
        "meta_bstar": 0.00022497,
        "meta_mean_motion_dot": 4.56e-05,
        "meta_mean_motion_ddot": 0,
        "tle_line1": "1 66770U 25276DJ  25359.18464500  .00004560  00000+0  22497-3 0  9991",
        "tle_line2": "2 66770  97.4444  70.7841 0003354 118.0381 242.1193 15.18402553  4015"
      },
      "geometry": {
        "type": "Point",
        "coordinates": [
          -103.89428514298969,
          34.21420647569215
        ]
      }
    },
    {
      "type": "Feature",
      "properties": {
        "norad_id": 66771,
        "name": "TRANSPORTER-15DK",
        "group": "last-30-days",
        "lat": 31.14415917539028,
        "lon": -104.46482324950153,
        "alt_km": 507.0857009689171,
        "timestamp": "2025-12-25T09:48:51.005249+00:00",
        "meta_object_name": "TRANSPORTER-15DK",
        "meta_object_id": "2025-276DK",
        "meta_epoch": "2025-12-25T04:25:05.482272",
        "meta_mean_motion": 15.18494653,
        "meta_eccentricity": 0.0003088,
        "meta_inclination": 97.4438,
        "meta_ra_of_asc_node": 70.7823,
        "meta_arg_of_pericenter": 110.4426,
        "meta_mean_anomaly": 249.714,
        "meta_ephemeris_type": 0,
        "meta_classification_type": "U",
        "meta_norad_cat_id": 66771,
        "meta_element_set_no": 999,
        "meta_rev_at_epoch": 401,
        "meta_bstar": 0.00034526,
        "meta_mean_motion_dot": 7.055e-05,
        "meta_mean_motion_ddot": 0,
        "tle_line1": "1 66771U 25276DK  25359.18409123  .00007055  00000+0  34526-3 0  9990",
        "tle_line2": "2 66771  97.4438  70.7823 0003088 110.4426 249.7140 15.18494653  4016"
      },
      "geometry": {
        "type": "Point",
        "coordinates": [
          -104.46482324950153,
          31.14415917539028
        ]
      }
    },
    {
      "type": "Feature",
      "properties": {
        "norad_id": 66772,
        "name": "TRANSPORTER-15DL",
        "group": "last-30-days",
        "lat": 16.56578771755371,
        "lon": -106.76502144190952,
        "alt_km": 509.52805964056097,
        "timestamp": "2025-12-25T09:48:51.005258+00:00",
        "meta_object_name": "TRANSPORTER-15DL",
        "meta_object_id": "2025-276DL",
        "meta_epoch": "2025-12-25T04:21:15.895008",
        "meta_mean_motion": 15.187226,
        "meta_eccentricity": 0.0002973,
        "meta_inclination": 97.4428,
        "meta_ra_of_asc_node": 70.7824,
        "meta_arg_of_pericenter": 98.5356,
        "meta_mean_anomaly": 261.6215,
        "meta_ephemeris_type": 0,
        "meta_classification_type": "U",
        "meta_norad_cat_id": 66772,
        "meta_element_set_no": 999,
        "meta_rev_at_epoch": 401,
        "meta_bstar": 0.00052627,
        "meta_mean_motion_dot": 0.00010866,
        "meta_mean_motion_ddot": 0,
        "tle_line1": "1 66772U 25276DL  25359.18143397  .00010866  00000+0  52627-3 0  9995",
        "tle_line2": "2 66772  97.4428  70.7824 0002973  98.5356 261.6215 15.18722600  4019"
      },
      "geometry": {
        "type": "Point",
        "coordinates": [
          -106.76502144190952,
          16.56578771755371
        ]
      }
    },
    {
      "type": "Feature",
      "properties": {
        "norad_id": 66773,
        "name": "TRANSPORTER-15DM",
        "group": "last-30-days",
        "lat": 24.450943200752818,
        "lon": -105.59031394624795,
        "alt_km": 508.50299402260043,
        "timestamp": "2025-12-25T09:48:51.005268+00:00",
        "meta_object_name": "TRANSPORTER-15DM",
        "meta_object_id": "2025-276DM",
        "meta_epoch": "2025-12-25T04:23:19.504032",
        "meta_mean_motion": 15.18550981,
        "meta_eccentricity": 0.000319,
        "meta_inclination": 97.4425,
        "meta_ra_of_asc_node": 70.7796,
        "meta_arg_of_pericenter": 97.5704,
        "meta_mean_anomaly": 262.5893,
        "meta_ephemeris_type": 0,
        "meta_classification_type": "U",
        "meta_norad_cat_id": 66773,
        "meta_element_set_no": 999,
        "meta_rev_at_epoch": 401,
        "meta_bstar": 0.00032454,
        "meta_mean_motion_dot": 6.638e-05,
        "meta_mean_motion_ddot": 0,
        "tle_line1": "1 66773U 25276DM  25359.18286463  .00006638  00000+0  32454-3 0  9996",
        "tle_line2": "2 66773  97.4425  70.7796 0003190  97.5704 262.5893 15.18550981  4016"
      },
      "geometry": {
        "type": "Point",
        "coordinates": [
          -105.59031394624795,
          24.450943200752818
        ]
      }
    }
  ]
}